     2.100          NAVIGATION                              RINEX VERSION / TYPE
fic2rin                                 07/30/2016 00:05:25 PGM / RUN BY / DATE
                                                            END OF HEADER
13 16  7 29  1 59 44.0 -.341385602951D-04 -.238742359215D-11  .000000000000D+00
     .200000000000D+02  .261250000000D+02  .434303804782D-08 -.765088395631D+00
     .150874257088D-05  .412115443032D-02  .106915831566D-04  .515368618202D+04
     .439184000000D+06 -.279396772385D-07 -.108598409329D+01 -.316649675369D-07
     .970821109133D+00  .175906250000D+03  .199514707919D+01 -.792854454142D-08
    -.401445293236D-09  .100000000000D+01  .190700000000D+04  .000000000000D+00
     .240000000000D+01  .000000000000D+00 -.111758708954D-07  .200000000000D+02
     .432006000000D+06  .400000000000D+01
18 16  7 29  1 59 44.0  .541481189430D-03  .409272615798D-11  .000000000000D+00
     .290000000000D+02 -.179375000000D+02  .570559480378D-08  .266570866179D+01
    -.103749334812D-05  .172743082512D-01  .569038093090D-05  .515369868279D+04
     .439184000000D+06  .838190317154D-07 -.228207924793D+01 -.275671482086D-06
     .925001533272D+00  .247031250000D+03 -.186790336435D+01 -.834034740895D-08
    -.139648674071D-09  .100000000000D+01  .190700000000D+04  .000000000000D+00
     .240000000000D+01  .000000000000D+00 -.111758708954D-07  .290000000000D+02
     .432006000000D+06  .400000000000D+01
29 16  7 29  1 59 44.0  .654719304293D-03 -.682121026330D-12  .000000000000D+00
     .250000000000D+02 -.827812500000D+02  .383515974980D-08 -.310979176818D+01
    -.423938035965D-05  .704386155121D-03  .860728323460D-05  .515378239059D+04
     .439184000000D+06  .130385160446D-07  .199739395020D+01  .931322574615D-08
     .977925209025D+00  .222656250000D+03  .557437751177D-01 -.781068248913D-08
     .953611150304D-10  .100000000000D+01  .190700000000D+04  .000000000000D+00
     .240000000000D+01  .000000000000D+00 -.102445483208D-07  .250000000000D+02
     .432006000000D+06  .400000000000D+01
 1 16  7 29  2  0  0.0  .284952111542D-04  .125055521494D-11  .000000000000D+00
     .500000000000D+02 -.734375000000D+01  .456876173584D-08 -.994339218631D+00
    -.296160578728D-06  .575605779886D-02  .878982245922D-05  .515363586998D+04
     .439200000000D+06  .165775418282D-06  .299505526707D+01 -.167638063431D-07
     .965267973046D+00  .209906250000D+03  .506278173227D+00 -.798068957061D-08
     .597167731576D-09  .100000000000D+01  .190700000000D+04  .000000000000D+00
     .240000000000D+01  .000000000000D+00  .512227416039D-08  .500000000000D+02
     .432006000000D+06  .400000000000D+01
 2 16  7 29  2  0  0.0  .571419950575D-03 -.420641299570D-11  .000000000000D+00
     .500000000000D+02 -.515625000000D+01  .508699760815D-08 -.589302592441D+00
    -.167638063431D-07  .158264057245D-01  .927783548832D-05  .515360562515D+04
     .439200000000D+06 -.596046447754D-07  .294820244826D+01  .230967998505D-06
     .944052329832D+00  .198093750000D+03 -.209809766564D+01 -.844463746733D-08
     .545022702383D-09  .100000000000D+01  .190700000000D+04  .000000000000D+00
     .240000000000D+01  .000000000000D+00 -.204890966415D-07  .500000000000D+02
     .432006000000D+06  .400000000000D+01
 3 16  7 29  2  0  0.0 -.766208395362D-04 -.284217094304D-11  .000000000000D+00
     .320000000000D+02 -.147500000000D+02  .508592613495D-08 -.509606677586D+00
    -.743195414543D-06  .163797289133D-03  .660307705402D-05  .515364557457D+04
     .439200000000D+06  .707805156708D-07 -.224686243125D+01 -.149011611938D-07
     .959254810665D+00  .251187500000D+03 -.112216726391D+01 -.825105797540D-08
    -.735744932444D-10  .100000000000D+01  .190700000000D+04  .000000000000D+00
     .240000000000D+01  .000000000000D+00  .139698386192D-08  .320000000000D+02
     .432006000000D+06  .400000000000D+01
 5 16  7 29  2  0  0.0 -.102049205452D-03  .272848410532D-11  .000000000000D+00
     .730000000000D+02 -.139687500000D+02  .544629828876D-08  .190234940753D+01
    -.616535544395D-06  .461127597373D-02  .623986124992D-05  .515355733681D+04
     .439200000000D+06 -.126659870148D-06 -.225960947284D+01  .108033418655D-06
     .946313370665D+00  .253812500000D+03  .466432009337D+00 -.845463788389D-08
    -.139291516336D-10  .100000000000D+01  .190700000000D+04  .000000000000D+00
     .240000000000D+01  .000000000000D+00 -.107102096081D-07  .730000000000D+02
     .432006000000D+06  .400000000000D+01
 6 16  7 29  2  0  0.0  .225057825446D-03  .522959453519D-11  .000000000000D+00
     .290000000000D+02 -.158125000000D+02  .454804658725D-08 -.800054740257D+00
    -.962987542152D-06  .301029067487D-03  .941380858421D-05  .515373529434D+04
     .439200000000D+06 -.558793544769D-08  .298663953092D+01 -.651925802231D-07
     .965085472552D+00  .204343750000D+03 -.128508585557D+01 -.793961643118D-08
     .533950812623D-09  .100000000000D+01  .190700000000D+04  .000000000000D+00
     .240000000000D+01  .000000000000D+00  .419095158577D-08  .290000000000D+02
     .432006000000D+06  .400000000000D+01
 7 16  7 29  2  0  0.0  .438765157014D-03 -.261479726760D-11  .000000000000D+00
     .970000000000D+02  .111718750000D+03  .430267922386D-08 -.169927855247D+01
     .566430389881D-05  .984337052796D-02  .691227614880D-05  .515363812256D+04
     .439200000000D+06  .372529029846D-07 -.129529404380D+00 -.206753611565D-06
     .965975693314D+00  .250218750000D+03 -.265562618942D+01 -.797533220460D-08
     .153934983439D-09  .100000000000D+01  .190700000000D+04  .000000000000D+00
     .340000000000D+01  .000000000000D+00 -.111758708954D-07  .970000000000D+02
     .432006000000D+06  .400000000000D+01
 8 16  7 29  2  0  0.0 -.445293262601D-04 -.147792889038D-11  .000000000000D+00
     .610000000000D+02 -.933750000000D+02  .414838708269D-08  .193577325718D+01
    -.481307506561D-05  .167586118914D-02  .932067632675D-05  .515373284912D+04
     .439200000000D+06  .428408384323D-07  .193413930496D+01  .372529029846D-07
     .963754682308D+00  .200656250000D+03 -.102815239467D+01 -.794033074665D-08
     .532165023952D-10  .100000000000D+01  .190700000000D+04  .000000000000D+00
     .240000000000D+01  .000000000000D+00  .512227416039D-08  .610000000000D+02
     .432006000000D+06  .400000000000D+01
 9 16  7 29  2  0  0.0  .176353380084D-03  .727595761418D-11  .000000000000D+00
     .170000000000D+02  .272500000000D+02  .462912139292D-08  .731131439611D+00
     .122003257275D-05  .503194285557D-03  .112075358629D-04  .515353594017D+04
     .439200000000D+06 -.279396772385D-07 -.120767945286D+01 -.391155481339D-07
     .954423393508D+00  .157406250000D+03  .240390221784D+01 -.796604610351D-08
    -.499663670140D-09  .100000000000D+01  .190700000000D+04  .000000000000D+00
     .240000000000D+01  .000000000000D+00  .139698386192D-08  .170000000000D+02
     .432006000000D+06  .400000000000D+01
10 16  7 29  2  0  0.0 -.739959068596D-04 -.670752342558D-11  .000000000000D+00
     .780000000000D+02 -.148750000000D+02  .500413701382D-08  .300361831614D+01
    -.711530447006D-06  .164509913884D-02  .656209886074D-05  .515367419434D+04
     .439200000000D+06 -.689178705215D-07 -.225081730008D+01 -.931322574615D-08
     .959485082748D+00  .254343750000D+03 -.275216249452D+01 -.815462538717D-08
    -.846463830045D-10  .100000000000D+01  .190700000000D+04  .000000000000D+00
     .240000000000D+01  .000000000000D+00  .232830643654D-08  .780000000000D+02
     .432006000000D+06  .400000000000D+01
11 16  7 29  2  0  0.0 -.657449476421D-03 -.125055521494D-11  .000000000000D+00
     .160000000000D+02 -.204375000000D+02  .586881588831D-08 -.158587272896D+01
    -.657513737679D-06  .166713346262D-01  .997446477413D-05  .515367200089D+04
     .439200000000D+06  .121071934700D-06  .261378899110D+01  .458210706711D-06
     .897616850831D+00  .150593750000D+03  .154823886001D+01 -.861357307561D-08
     .508592613495D-09  .100000000000D+01  .190700000000D+04  .000000000000D+00
     .240000000000D+01  .000000000000D+00 -.121071934700D-07  .160000000000D+02
     .432006000000D+06  .400000000000D+01
12 16  7 29  2  0  0.0  .386356376112D-03  .909494701773D-12  .000000000000D+00
     .930000000000D+02 -.211562500000D+02  .385408910971D-08 -.229919466970D+01
    -.102072954178D-05  .608627090696D-02  .305473804474D-05  .515369002533D+04
     .439200000000D+06  .000000000000D+00  .947621463735D+00 -.800937414169D-07
     .990193185909D+00  .336343750000D+03  .783211858661D+00 -.793675916931D-08
    -.375015620906D-10  .100000000000D+01  .190700000000D+04  .000000000000D+00
     .340000000000D+01  .000000000000D+00 -.125728547573D-07  .930000000000D+02
     .432006000000D+06  .400000000000D+01
14 16  7 29  2  0  0.0 -.270209275186D-04 -.193267624127D-11  .000000000000D+00
     .220000000000D+02  .378125000000D+02  .451554523344D-08  .770793761511D+00
     .206008553505D-05  .890098395757D-02  .104960054159D-04  .515404275894D+04
     .439200000000D+06 -.838190317154D-07 -.112343347510D+01  .558793544769D-07
     .963293447644D+00  .182875000000D+03 -.195995144117D+01 -.805212111745D-08
    -.476091259683D-09  .100000000000D+01  .190700000000D+04  .000000000000D+00
     .240000000000D+01  .000000000000D+00 -.931322574615D-08  .220000000000D+02
     .432006000000D+06  .400000000000D+01
15 16  7 29  2  0  0.0 -.321254599839D-03 -.147792889038D-11  .000000000000D+00
     .690000000000D+02  .284375000000D+01  .538986736675D-08  .346188549148D+00
     .314787030220D-06  .824791484047D-02  .958330929279D-05  .515363511276D+04
     .439200000000D+06  .223517417908D-07 -.126179056312D+01  .115483999252D-06
     .930108599305D+00  .174437500000D+03  .488642605080D+00 -.847035282419D-08
    -.520021660989D-09  .100000000000D+01  .190700000000D+04  .000000000000D+00
     .240000000000D+01  .000000000000D+00 -.107102096081D-07  .690000000000D+02
     .432006000000D+06  .400000000000D+01
